INMARSAT 4-F2 (SOUTHPA*)
1 28899U 05044A   26202.50962664 -.00000262  00000+0  00000+0 0  9998
2 28899   5.1398  43.6902 0002919  59.6691 162.8705  1.00272679 75864
GSAT-8 (GAGAN/PRN 127)  
1 37605U 11022A   26202.62724459  .00000085  00000+0  00000+0 0  9999
2 37605   2.2178  81.4058 0002505 151.4207 347.4399  1.00271655 53566
LUCH 5A (SDCM/PRN 140)  
1 37951U 11074B   26202.43533948 -.00000054  00000+0  00000+0 0  9997
2 37951   8.8385  73.3022 0002846  60.8161 128.8299  1.00274538 53397
SES-5 (EGNOS/PRN 136)   
1 38652U 12036A   26202.61731535  .00000036  00000+0  00000+0 0  9996
2 38652   0.0452 318.7186 0002075 159.8858  47.9782  1.00272397 44803
GSAT-10 (GAGAN/PRN 128) 
1 38779U 12051B   26202.63279127 -.00000163  00000+0  00000+0 0  9991
2 38779   0.0745 263.6320 0007620 192.3187 154.2549  1.00272679 50447
LUCH 5B (SDCM/PRN 125)  
1 38977U 12061A   26202.39912332 -.00000143  00000+0  00000+0 0  9995
2 38977  10.5558  49.5380 0003896 142.5717 234.4338  1.00271106 49954
ASTRA 5B (EGNOS/PRN 123)
1 39617U 14011B   26202.62095537  .00000139  00000+0  00000+0 0  9993
2 39617   0.0637 310.8625 0002172 176.5673  58.9312  1.00271824 45019
LUCH 5V (SDCM/PRN 141)  
1 39727U 14023A   26202.63504462 -.00000271  00000+0  00000+0 0  9999
2 39727   5.2161  69.3868 0002240  79.1395 114.2256  1.00271869 44707
GSAT-15 (GAGAN/PRN 139) 
1 41028U 15065A   26202.63478462 -.00000256  00000+0  00000+0 0  9996
2 41028   0.1012 263.4124 0003586 178.5785 179.4288  1.00271684 39141
EUTELSAT 117 WEST B (W*)
1 41589U 16038B   26202.59313523 -.00000010  00000+0  00000+0 0  9998
2 41589   0.0032 121.2444 0000168  52.0973 222.5439  1.00272106 37009
SES-15 (WAAS/PRN 133)   
1 42709U 17026A   26202.27892093  .00000061  00000+0  00000+0 0  9995
2 42709   0.0290 317.0918 0001024 186.3345 126.8704  1.00272289  7771
QZS-2 (QZSS/PRN 194)    
1 42738U 17028A   26201.46513987 -.00000138  00000+0  00000+0 0  9997
2 42738  39.3796 242.6632 0756849 269.6615  95.8478  1.00275408  7962
QZS-3 (QZSS/PRN 199)    
1 42917U 17048A   26202.64146706 -.00000346  00000+0  00000+0 0  9991
2 42917   0.0593 205.0600 0002807 281.7199 170.5669  1.00269610 32609
QZS-4 (QZSS/PRN 195)    
1 42965U 17062A   26202.25726799 -.00000358  00000+0  00000+0 0  9996
2 42965  40.0879 343.0509 0746939 268.6822 279.3148  1.00289434 32147
BEIDOU-3 G1 (PRN 130)   
1 43683U 18085A   26202.61880816 -.00000109  00000+0  00000+0 0  9995
2 43683   2.9538  96.4412 0008252 357.0769 228.6180  1.00272805 28409
EUTELSAT 5 WEST B (EGN*)
1 44624U 19067A   26202.61514867 -.00000041  00000+0  00000+0 0  9997
2 44624   0.0744 324.8999 0003239 153.9630  36.9490  1.00271842 24782
BEIDOU-3 G2 (PRN 144)   
1 45344U 20017A   26202.64452186 -.00000140  00000+0  00000+0 0  9992
2 45344   2.9329  47.8340 0001994  57.2509 146.3712  1.00272603 23600
BEIDOU-3 G3 (PRN 143)   
1 45807U 20040A   26202.63817372 -.00000354  00000+0  00000+0 0  9990
2 45807   2.5301  67.5062 0002299 314.0816 258.0922  1.00273705 22410
GALAXY 30 (WAAS/PRN 135)
1 46114U 20056C   26202.59157523  .00000039  00000+0  00000+0 0  9998
2 46114   0.0168  64.3610 0002195  52.3892 270.5573  1.00270965 21630
QZS-1R (QZSS/PRN 196)   
1 49336U 21096A   26200.56101544 -.00000322  00000+0  00000+0 0  9995
2 49336  37.5263  79.1015 0755512 272.3091 279.1178  1.00244085 17338
QZS-6 (QZSS/PRN 200)    
1 62876U 25023A   26202.66580109 -.00000231  00000+0  00000+0 0  9993
2 62876   0.0157  49.4360 0002017  65.2669 154.8936  1.00274155  5291
